KUIPER-00104            
1 65142U 25171L   26024.19944297  .00006678  00000+0  97378-3 0  9996
2 65142  51.9031 354.6620 0005319  35.7765 324.3551 14.76751597 26302
KUIPER-00105            
1 65143U 25171M   26024.23456355  .00008649  00000+0  11613-2 0  9992
2 65143  51.9018   2.2314 0002295  26.1534 333.9544 14.79964707 26201
KUIPER-00106            
1 65144U 25171N   26024.18532969  .00015165  00000+0  13191-2 0  9997
2 65144  51.8949 357.1716 0008010 315.8670  44.1660 14.97100225 26276
KUIPER-00107            
1 65145U 25171P   26024.18597743  .00003183  00000+0  44617-3 0  9994
2 65145  51.9022 344.8850 0001113  89.4682 270.6408 14.79952770 26441
KUIPER-00108            
1 65146U 25171Q   26024.20627960 -.00014127  00000+0 -18245-2 0  9992
2 65146  51.9034 357.3035 0002436  18.2551 341.8498 14.80008347 26278
KUIPER-00109            
1 65147U 25171R   26024.50001156  .00016852  00000+0  22534-2 0  9990
2 65147  51.9032 350.9479 0007475 350.1850 287.9984 14.79551310  2282
KUIPER-00110            
1 65148U 25171S   26024.46819110 -.00006547  00000+0 -83085-3 0  9994
2 65148  51.9008   3.6837 0002672  47.2925 312.8262 14.79912347 26191
KUIPER-00111            
1 65149U 25171T   26024.15899585  .00000076  00000+0  39113-4 0  9998
2 65149  51.8968   9.9715 0002775  23.1532 336.9555 14.79895413 26085
